APRIZESAT 2             
1 28366U 04025A   26060.43435170  .00000390  00000+0  13433-3 0  9995
2 28366  98.0898 232.5713 0104982 214.8391 144.5895 14.37980626136152
SAUDICOMSAT 1           
1 28369U 04025D   26060.49368353  .00000615  00000+0  15213-3 0  9990
2 28369  98.5808  67.7069 0032073 355.6459   4.4453 14.55377139148463
SAUDICOMSAT 2           
1 28370U 04025E   26060.47233784  .00000394  00000+0  11273-3 0  9995
2 28370  98.6685  69.6567 0054795 225.0645 134.6097 14.49901422144495
APRIZESAT 1             
1 28372U 04025G   26060.49974063  .00000358  00000+0  99987-4 0  9990
2 28372  98.6343  68.2770 0045692 121.8894 238.6758 14.51707445146284
NANOSAT-1               
1 28493U 04049B   26060.33661608  .00001692  00000+0  23150-3 0  9991
2 28493  98.2084 194.4893 0002808 282.5261  77.5636 14.79888833139490
SAUDICOMSAT 7           
1 31119U 07012C   26060.41208906  .00000806  00000+0  15353-3 0  9992
2 31119  98.3663  32.4177 0055917 172.9031 187.2976 14.65954836  6643
SAUDICOMSAT 6           
1 31121U 07012E   26060.47026926  .00001022  00000+0  20522-3 0  9996
2 31121  98.3973  26.0707 0070879 302.8563  56.5828 14.62413119  4447
SAUDICOMSAT 5           
1 31124U 07012H   26060.46708895  .00001012  00000+0  18269-3 0  9994
2 31124  98.3376  33.2418 0048809 104.1049 256.5587 14.67982410  7791
SAUDICOMSAT 3           
1 31125U 07012J   26060.40879361  .00001451  00000+0  24511-3 0  9990
2 31125  98.3033  33.7431 0040126  34.4358 325.9436 14.70497454  8983
SAUDICOMSAT 4           
1 31127U 07012L   26060.47309339  .00000822  00000+0  16114-3 0  9993
2 31127  98.3867  30.9313 0062428 234.3177 125.2205 14.64363160  5528
APRIZESAT 4             
1 35684U 09041D   26060.15741662  .00000917  00000+0  11633-3 0  9999
2 35684  98.1504 133.3036 0042394 313.1694  46.5979 14.83688585895348
APRIZESAT 3             
1 35686U 09041F   26060.34985877  .00002701  00000+0  23801-3 0  9993
2 35686  98.1874 208.5340 0063195  63.8870 296.8834 14.95856548900256
S-NET D                 
1 43186U 18014G   26060.28943217  .00007427  00000+0  39529-3 0  9996
2 43186  97.5448 325.7947 0009659  40.9118 319.2838 15.15492209442417
S-NET B                 
1 43187U 18014H   26060.29883626  .00006920  00000+0  36883-3 0  9992
2 43187  97.5455 325.7871 0010189  36.5929 323.5997 15.15464884442415
S-NET A                 
1 43188U 18014J   26060.28881650  .00007579  00000+0  40317-3 0  9995
2 43188  97.5464 325.9664 0010122  36.8876 323.3051 15.15499097442412
S-NET C                 
1 43189U 18014K   26060.30214144  .00006749  00000+0  35977-3 0  9991
2 43189  97.5481 326.0375 0011338  29.4988 330.6882 15.15457412440961
SALSAT                  
1 46495U 20068K   26060.48768708  .00011000  00000+0  40526-3 0  9997
2 46495  97.8843  57.1429 0008976 330.8256  29.2479 15.27983521298908
OOV-CUBE (TUBSAT-30)    
1 60240U 24128F   26060.50875514  .00004072  00000+0  31364-3 0  9990
2 60240  61.9932 240.8886 0055212 110.7559 249.9460 15.02173136 89935
